CCSDS_OMM_VERS = 2.0
CREATION_DATE  = 
ORIGINATOR     = 

OBJECT_NAME    = STARLINK-35479
OBJECT_ID      = 2025-253H
CENTER_NAME    = EARTH
REF_FRAME      = TEME
TIME_SYSTEM    = UTC
MEAN_ELEMENT_THEORY = SGP/SGP4

EPOCH          = 2025-11-15T20:00:01.999008
MEAN_MOTION    = 15.89124316
ECCENTRICITY   = .0001669
INCLINATION    = 42.9965
RA_OF_ASC_NODE = 144.1430
ARG_OF_PERICENTER = 276.1850
MEAN_ANOMALY   = 51.2356

EPHEMERIS_TYPE = 0
CLASSIFICATION_TYPE = U
NORAD_CAT_ID   = 66326
ELEMENT_SET_NO = 999
REV_AT_EPOCH   = 270
BSTAR          = -.61102E-2
MEAN_MOTION_DOT = -.1596798E-1
MEAN_MOTION_DDOT = 0

CCSDS_OMM_VERS = 2.0
CREATION_DATE  = 
ORIGINATOR     = 

OBJECT_NAME    = STARLINK-35507
OBJECT_ID      = 2025-253J
CENTER_NAME    = EARTH
REF_FRAME      = TEME
TIME_SYSTEM    = UTC
MEAN_ELEMENT_THEORY = SGP/SGP4

EPOCH          = 2025-11-15T20:00:01.999008
MEAN_MOTION    = 15.88990863
ECCENTRICITY   = .0001722
INCLINATION    = 42.9969
RA_OF_ASC_NODE = 144.1818
ARG_OF_PERICENTER = 270.1295
MEAN_ANOMALY   = 42.0329

EPHEMERIS_TYPE = 0
CLASSIFICATION_TYPE = U
NORAD_CAT_ID   = 66327
ELEMENT_SET_NO = 999
REV_AT_EPOCH   = 270
BSTAR          = -.58337E-2
MEAN_MOTION_DOT = -.1492619E-1
MEAN_MOTION_DDOT = 0

CCSDS_OMM_VERS = 2.0
CREATION_DATE  = 
ORIGINATOR     = 

OBJECT_NAME    = STARLINK-35460
OBJECT_ID      = 2025-253K
CENTER_NAME    = EARTH
REF_FRAME      = TEME
TIME_SYSTEM    = UTC
MEAN_ELEMENT_THEORY = SGP/SGP4

EPOCH          = 2025-11-15T20:00:01.999008
MEAN_MOTION    = 15.89233584
ECCENTRICITY   = .0001764
INCLINATION    = 42.9963
RA_OF_ASC_NODE = 144.1271
ARG_OF_PERICENTER = 276.1272
MEAN_ANOMALY   = 57.1545

EPHEMERIS_TYPE = 0
CLASSIFICATION_TYPE = U
NORAD_CAT_ID   = 66328
ELEMENT_SET_NO = 999
REV_AT_EPOCH   = 270
BSTAR          = -.61419E-2
MEAN_MOTION_DOT = -.1612013E-1
MEAN_MOTION_DDOT = 0

CCSDS_OMM_VERS = 2.0
CREATION_DATE  = 
ORIGINATOR     = 

OBJECT_NAME    = STARLINK-35505
OBJECT_ID      = 2025-253L
CENTER_NAME    = EARTH
REF_FRAME      = TEME
TIME_SYSTEM    = UTC
MEAN_ELEMENT_THEORY = SGP/SGP4

EPOCH          = 2025-11-15T20:00:01.999008
MEAN_MOTION    = 15.88981215
ECCENTRICITY   = .0001724
INCLINATION    = 42.9969
RA_OF_ASC_NODE = 144.1878
ARG_OF_PERICENTER = 277.3244
MEAN_ANOMALY   = 32.6840

EPHEMERIS_TYPE = 0
CLASSIFICATION_TYPE = U
NORAD_CAT_ID   = 66329
ELEMENT_SET_NO = 999
REV_AT_EPOCH   = 260
BSTAR          = -.58823E-2
MEAN_MOTION_DOT = -.150265E-1
MEAN_MOTION_DDOT = 0

CCSDS_OMM_VERS = 2.0
CREATION_DATE  = 
ORIGINATOR     = 

OBJECT_NAME    = STARLINK-35512
OBJECT_ID      = 2025-253M
CENTER_NAME    = EARTH
REF_FRAME      = TEME
TIME_SYSTEM    = UTC
MEAN_ELEMENT_THEORY = SGP/SGP4

EPOCH          = 2025-11-15T20:00:01.999008
MEAN_MOTION    = 15.89064370
ECCENTRICITY   = .0001809
INCLINATION    = 42.9966
RA_OF_ASC_NODE = 144.1539
ARG_OF_PERICENTER = 276.5495
MEAN_ANOMALY   = 46.7026

EPHEMERIS_TYPE = 0
CLASSIFICATION_TYPE = U
NORAD_CAT_ID   = 66330
ELEMENT_SET_NO = 999
REV_AT_EPOCH   = 260
BSTAR          = -.60724E-2
MEAN_MOTION_DOT = -.1584014E-1
MEAN_MOTION_DDOT = 0

CCSDS_OMM_VERS = 2.0
CREATION_DATE  = 
ORIGINATOR     = 

OBJECT_NAME    = STARLINK-35257
OBJECT_ID      = 2025-253N
CENTER_NAME    = EARTH
REF_FRAME      = TEME
TIME_SYSTEM    = UTC
MEAN_ELEMENT_THEORY = SGP/SGP4

EPOCH          = 2025-11-15T20:00:01.999008
MEAN_MOTION    = 15.89338406
ECCENTRICITY   = .0001823
INCLINATION    = 42.9967
RA_OF_ASC_NODE = 144.1124
ARG_OF_PERICENTER = 273.4850
MEAN_ANOMALY   = 65.9597

EPHEMERIS_TYPE = 0
CLASSIFICATION_TYPE = U
NORAD_CAT_ID   = 66331
ELEMENT_SET_NO = 999
REV_AT_EPOCH   = 233
BSTAR          = -.6154E-2
MEAN_MOTION_DOT = -.1622449E-1
MEAN_MOTION_DDOT = 0

CCSDS_OMM_VERS = 2.0
CREATION_DATE  = 
ORIGINATOR     = 

OBJECT_NAME    = STARLINK-35322
OBJECT_ID      = 2025-253P
CENTER_NAME    = EARTH
REF_FRAME      = TEME
TIME_SYSTEM    = UTC
MEAN_ELEMENT_THEORY = SGP/SGP4

EPOCH          = 2025-11-15T20:00:01.999008
MEAN_MOTION    = 15.89162504
ECCENTRICITY   = .0001738
INCLINATION    = 42.9966
RA_OF_ASC_NODE = 144.1377
ARG_OF_PERICENTER = 275.6267
MEAN_ANOMALY   = 53.6780

EPHEMERIS_TYPE = 0
CLASSIFICATION_TYPE = U
NORAD_CAT_ID   = 66332
ELEMENT_SET_NO = 999
REV_AT_EPOCH   = 260
BSTAR          = -.61186E-2
MEAN_MOTION_DOT = -.1601534E-1
MEAN_MOTION_DDOT = 0

CCSDS_OMM_VERS = 2.0
CREATION_DATE  = 
ORIGINATOR     = 

OBJECT_NAME    = STARLINK-35400
OBJECT_ID      = 2025-253Q
CENTER_NAME    = EARTH
REF_FRAME      = TEME
TIME_SYSTEM    = UTC
MEAN_ELEMENT_THEORY = SGP/SGP4

EPOCH          = 2025-11-15T20:00:01.999008
MEAN_MOTION    = 15.89303049
ECCENTRICITY   = .0001773
INCLINATION    = 42.9962
RA_OF_ASC_NODE = 144.1165
ARG_OF_PERICENTER = 278.0228
MEAN_ANOMALY   = 59.4860

EPHEMERIS_TYPE = 0
CLASSIFICATION_TYPE = U
NORAD_CAT_ID   = 66333
ELEMENT_SET_NO = 999
REV_AT_EPOCH   = 260
BSTAR          = -.61669E-2
MEAN_MOTION_DOT = -.1622804E-1
MEAN_MOTION_DDOT = 0

CCSDS_OMM_VERS = 2.0
CREATION_DATE  = 
ORIGINATOR     = 

OBJECT_NAME    = STARLINK-35407
OBJECT_ID      = 2025-253R
CENTER_NAME    = EARTH
REF_FRAME      = TEME
TIME_SYSTEM    = UTC
MEAN_ELEMENT_THEORY = SGP/SGP4

EPOCH          = 2025-11-15T20:00:01.999008
MEAN_MOTION    = 15.89182260
ECCENTRICITY   = .0001759
INCLINATION    = 42.9970
RA_OF_ASC_NODE = 144.1330
ARG_OF_PERICENTER = 276.1908
MEAN_ANOMALY   = 55.3041

EPHEMERIS_TYPE = 0
CLASSIFICATION_TYPE = U
NORAD_CAT_ID   = 66334
ELEMENT_SET_NO = 999
REV_AT_EPOCH   = 260
BSTAR          = -.6072E-2
MEAN_MOTION_DOT = -.1592256E-1
MEAN_MOTION_DDOT = 0

CCSDS_OMM_VERS = 2.0
CREATION_DATE  = 
ORIGINATOR     = 

OBJECT_NAME    = STARLINK-35417
OBJECT_ID      = 2025-253S
CENTER_NAME    = EARTH
REF_FRAME      = TEME
TIME_SYSTEM    = UTC
MEAN_ELEMENT_THEORY = SGP/SGP4

EPOCH          = 2025-11-15T20:00:01.999008
MEAN_MOTION    = 15.89478192
ECCENTRICITY   = .0001755
INCLINATION    = 42.9966
RA_OF_ASC_NODE = 144.0903
ARG_OF_PERICENTER = 275.4395
MEAN_ANOMALY   = 72.6931

EPHEMERIS_TYPE = 0
CLASSIFICATION_TYPE = U
NORAD_CAT_ID   = 66335
ELEMENT_SET_NO = 999
REV_AT_EPOCH   = 260
BSTAR          = -.6229E-2
MEAN_MOTION_DOT = -.1649929E-1
MEAN_MOTION_DDOT = 0

CCSDS_OMM_VERS = 2.0
CREATION_DATE  = 
ORIGINATOR     = 

OBJECT_NAME    = STARLINK-35404
OBJECT_ID      = 2025-253T
CENTER_NAME    = EARTH
REF_FRAME      = TEME
TIME_SYSTEM    = UTC
MEAN_ELEMENT_THEORY = SGP/SGP4

EPOCH          = 2025-11-15T20:00:01.999008
MEAN_MOTION    = 15.89372383
ECCENTRICITY   = .0001787
INCLINATION    = 42.9965
RA_OF_ASC_NODE = 144.1064
ARG_OF_PERICENTER = 277.4626
MEAN_ANOMALY   = 64.5167

EPHEMERIS_TYPE = 0
CLASSIFICATION_TYPE = U
NORAD_CAT_ID   = 66336
ELEMENT_SET_NO = 999
REV_AT_EPOCH   = 270
BSTAR          = -.62063E-2
MEAN_MOTION_DOT = -.1636951E-1
MEAN_MOTION_DDOT = 0

CCSDS_OMM_VERS = 2.0
CREATION_DATE  = 
ORIGINATOR     = 

OBJECT_NAME    = STARLINK-34783
OBJECT_ID      = 2025-253U
CENTER_NAME    = EARTH
REF_FRAME      = TEME
TIME_SYSTEM    = UTC
MEAN_ELEMENT_THEORY = SGP/SGP4

EPOCH          = 2025-11-15T20:00:01.999008
MEAN_MOTION    = 15.89502244
ECCENTRICITY   = .0001737
INCLINATION    = 42.9967
RA_OF_ASC_NODE = 144.0832
ARG_OF_PERICENTER = 278.2229
MEAN_ANOMALY   = 72.8410

EPHEMERIS_TYPE = 0
CLASSIFICATION_TYPE = U
NORAD_CAT_ID   = 66337
ELEMENT_SET_NO = 999
REV_AT_EPOCH   = 265
BSTAR          = -.62565E-2
MEAN_MOTION_DOT = -.1658038E-1
MEAN_MOTION_DDOT = 0

CCSDS_OMM_VERS = 2.0
CREATION_DATE  = 
ORIGINATOR     = 

OBJECT_NAME    = STARLINK-35477
OBJECT_ID      = 2025-253V
CENTER_NAME    = EARTH
REF_FRAME      = TEME
TIME_SYSTEM    = UTC
MEAN_ELEMENT_THEORY = SGP/SGP4

EPOCH          = 2025-11-15T20:00:01.999008
MEAN_MOTION    = 15.89440479
ECCENTRICITY   = .0001751
INCLINATION    = 42.9965
RA_OF_ASC_NODE = 144.0956
ARG_OF_PERICENTER = 277.5577
MEAN_ANOMALY   = 68.9014

EPHEMERIS_TYPE = 0
CLASSIFICATION_TYPE = U
NORAD_CAT_ID   = 66338
ELEMENT_SET_NO = 999
REV_AT_EPOCH   = 270
BSTAR          = -.62405E-2
MEAN_MOTION_DOT = -.1649797E-1
MEAN_MOTION_DDOT = 0

CCSDS_OMM_VERS = 2.0
CREATION_DATE  = 
ORIGINATOR     = 

OBJECT_NAME    = STARLINK-35443
OBJECT_ID      = 2025-253W
CENTER_NAME    = EARTH
REF_FRAME      = TEME
TIME_SYSTEM    = UTC
MEAN_ELEMENT_THEORY = SGP/SGP4

EPOCH          = 2025-11-15T20:00:01.999008
MEAN_MOTION    = 15.89563413
ECCENTRICITY   = .0001789
INCLINATION    = 42.9963
RA_OF_ASC_NODE = 144.0570
ARG_OF_PERICENTER = 278.0577
MEAN_ANOMALY   = 83.1262

EPHEMERIS_TYPE = 0
CLASSIFICATION_TYPE = U
NORAD_CAT_ID   = 66339
ELEMENT_SET_NO = 999
REV_AT_EPOCH   = 265
BSTAR          = -.66854E-2
MEAN_MOTION_DOT = -.1760839E-1
MEAN_MOTION_DDOT = 0

CCSDS_OMM_VERS = 2.0
CREATION_DATE  = 
ORIGINATOR     = 

OBJECT_NAME    = STARLINK-35218
OBJECT_ID      = 2025-253X
CENTER_NAME    = EARTH
REF_FRAME      = TEME
TIME_SYSTEM    = UTC
MEAN_ELEMENT_THEORY = SGP/SGP4

EPOCH          = 2025-11-15T20:00:01.999008
MEAN_MOTION    = 15.89401966
ECCENTRICITY   = .0001711
INCLINATION    = 42.9965
RA_OF_ASC_NODE = 144.0999
ARG_OF_PERICENTER = 279.1650
MEAN_ANOMALY   = 65.2057

EPHEMERIS_TYPE = 0
CLASSIFICATION_TYPE = U
NORAD_CAT_ID   = 66340
ELEMENT_SET_NO = 999
REV_AT_EPOCH   = 270
BSTAR          = -.62181E-2
MEAN_MOTION_DOT = -.1641753E-1
MEAN_MOTION_DDOT = 0

